ZACUBE-1 (TSHEPISOSAT)  
1 39417U 13066B   26087.60341803  .00004822  00000+0  37977-3 0  9999
2 39417  97.8138  49.5190 0044573 158.1982 202.1152 15.00491751668643
WNISAT-1                
1 39423U 13066H   26087.43670532  .00001550  00000+0  28886-3 0  9995
2 39423  97.7081 242.3813 0164579 126.0346 235.6233 14.57935708654965
TRITON-1                
1 39427U 13066M   26087.65343323  .00003753  00000+0  45401-3 0  9997
2 39427  97.8283 359.3051 0091623 136.0311 224.8239 14.81297125662167
GOMX-1                  
1 39430U 13066Q   26087.55443906  .00001605  00000+0  24815-3 0  9998
2 39430  97.6558 293.0826 0128794 337.1059  22.4437 14.69166832658074
CUBEBUG-2 (LO-74)       
1 39440U 13066AA  26087.59650205  .00005925  00000+0  55576-3 0  9992
2 39440  97.8832  36.3045 0056705 295.4944  64.0417 14.93163948664961
NEE-02 KRYSAOR          
1 39441U 13066AB  26087.56576334  .00003503  00000+0  38909-3 0  9991
2 39441  97.8834  27.4006 0065964 335.4527  24.3552 14.86286464664220
FUNCUBE-1 (AO-73)       
1 39444U 13066AE  26087.41853922  .00009121  00000+0  58288-3 0  9993
2 39444  97.8204  57.2827 0038917 117.0629 243.4578 15.08233066667489
UWE-3                   
1 39446U 13066AG  26086.85253857  .00003580  00000+0  31439-3 0  9995
2 39446  97.8618  42.4606 0048305 229.9974 129.7003 14.96361547665411
BRITE-CA1 (TORONTO)     
1 40020U 14033L   26087.31630486  .00001599  00000+0  24760-3 0  9996
2 40020  97.9601 217.8031 0079051 174.9106 185.2924 14.72520262630317
DUCHIFAT-1              
1 40021U 14033M   26087.60321211  .00076623  00000+0  12559-2 0  9994
2 40021  98.0603 136.2924 0003912  23.3897 336.7531 15.52193066643200
NANOSATC-BR1            
1 40024U 14033Q   26087.57495381  .00020658  00000+0  73890-3 0  9996
2 40024  98.0820 112.9529 0005488 104.0038 256.1810 15.28824852641659
QB50P1                  
1 40025U 14033R   26087.57840542  .00010949  00000+0  55840-3 0  9997
2 40025  98.1003  93.1439 0010253 134.0107 226.1971 15.16899460640805
QB50P2                  
1 40032U 14033Y   26087.50141240  .00009835  00000+0  54475-3 0  9992
2 40032  98.0746  79.4365 0009565  90.3155 269.9171 15.14008024640456
PERSEUS-M2              
1 40037U 14033AD  26087.63279587  .00000871  00000+0  84637-4 0  9992
2 40037  97.9888  36.5869 0010964 200.7109 159.3668 14.95237406638748
PERSEUS-M1              
1 40039U 14033AF  26087.41099131  .00001682  00000+0  15790-3 0  9999
2 40039  97.9575  30.2681 0010882 198.7747 161.3073 14.95339778638567
POLYITAN-1              
1 40042U 14033AJ  26087.57564348  .00023611  00000+0  80429-3 0  9994
2 40042  98.1033 106.3644 0009371  76.3268 283.9014 15.30361713641257
