[{"OBJECT_NAME":"ZACUBE-1 (TSHEPISOSAT)","OBJECT_ID":"2013-066B","EPOCH":"2026-03-28T14:28:55.317792","MEAN_MOTION":15.00491751,"ECCENTRICITY":0.00445732,"INCLINATION":97.8138,"RA_OF_ASC_NODE":49.519,"ARG_OF_PERICENTER":158.1982,"MEAN_ANOMALY":202.1152,"EPHEMERIS_TYPE":0,"CLASSIFICATION_TYPE":"U","NORAD_CAT_ID":39417,"ELEMENT_SET_NO":999,"REV_AT_EPOCH":66864,"BSTAR":0.00037977004,"MEAN_MOTION_DOT":4.822e-5,"MEAN_MOTION_DDOT":0},{"OBJECT_NAME":"WNISAT-1","OBJECT_ID":"2013-066H","EPOCH":"2026-03-28T10:28:51.339648","MEAN_MOTION":14.57935708,"ECCENTRICITY":0.01645795,"INCLINATION":97.7081,"RA_OF_ASC_NODE":242.3813,"ARG_OF_PERICENTER":126.0346,"MEAN_ANOMALY":235.6233,"EPHEMERIS_TYPE":0,"CLASSIFICATION_TYPE":"U","NORAD_CAT_ID":39423,"ELEMENT_SET_NO":999,"REV_AT_EPOCH":65496,"BSTAR":0.00028886413,"MEAN_MOTION_DOT":1.55e-5,"MEAN_MOTION_DDOT":0},{"OBJECT_NAME":"TRITON-1","OBJECT_ID":"2013-066M","EPOCH":"2026-03-28T15:40:56.631072","MEAN_MOTION":14.81297125,"ECCENTRICITY":0.00916232,"INCLINATION":97.8283,"RA_OF_ASC_NODE":359.3051,"ARG_OF_PERICENTER":136.0311,"MEAN_ANOMALY":224.8239,"EPHEMERIS_TYPE":0,"CLASSIFICATION_TYPE":"U","NORAD_CAT_ID":39427,"ELEMENT_SET_NO":999,"REV_AT_EPOCH":66216,"BSTAR":0.00045401273,"MEAN_MOTION_DOT":3.753e-5,"MEAN_MOTION_DDOT":0},{"OBJECT_NAME":"GOMX-1","OBJECT_ID":"2013-066Q","EPOCH":"2026-03-28T13:18:23.534784","MEAN_MOTION":14.69166832,"ECCENTRICITY":0.01287946,"INCLINATION":97.6558,"RA_OF_ASC_NODE":293.0826,"ARG_OF_PERICENTER":337.1059,"MEAN_ANOMALY":22.4437,"EPHEMERIS_TYPE":0,"CLASSIFICATION_TYPE":"U","NORAD_CAT_ID":39430,"ELEMENT_SET_NO":999,"REV_AT_EPOCH":65807,"BSTAR":0.00024815247,"MEAN_MOTION_DOT":1.605e-5,"MEAN_MOTION_DDOT":0},{"OBJECT_NAME":"CUBEBUG-2 (LO-74)","OBJECT_ID":"2013-066AA","EPOCH":"2026-03-28T14:18:57.777120","MEAN_MOTION":14.93163948,"ECCENTRICITY":0.00567056,"INCLINATION":97.8832,"RA_OF_ASC_NODE":36.3045,"ARG_OF_PERICENTER":295.4944,"MEAN_ANOMALY":64.0417,"EPHEMERIS_TYPE":0,"CLASSIFICATION_TYPE":"U","NORAD_CAT_ID":39440,"ELEMENT_SET_NO":999,"REV_AT_EPOCH":66496,"BSTAR":0.00055576276,"MEAN_MOTION_DOT":5.925e-5,"MEAN_MOTION_DDOT":0},{"OBJECT_NAME":"NEE-02 KRYSAOR","OBJECT_ID":"2013-066AB","EPOCH":"2026-03-28T13:34:41.952576","MEAN_MOTION":14.86286464,"ECCENTRICITY":0.0065964,"INCLINATION":97.8834,"RA_OF_ASC_NODE":27.4006,"ARG_OF_PERICENTER":335.4527,"MEAN_ANOMALY":24.3552,"EPHEMERIS_TYPE":0,"CLASSIFICATION_TYPE":"U","NORAD_CAT_ID":39441,"ELEMENT_SET_NO":999,"REV_AT_EPOCH":66422,"BSTAR":0.00038908823,"MEAN_MOTION_DOT":3.503e-5,"MEAN_MOTION_DDOT":0},{"OBJECT_NAME":"FUNCUBE-1 (AO-73)","OBJECT_ID":"2013-066AE","EPOCH":"2026-03-28T10:02:41.788608","MEAN_MOTION":15.08233066,"ECCENTRICITY":0.00389178,"INCLINATION":97.8204,"RA_OF_ASC_NODE":57.2827,"ARG_OF_PERICENTER":117.0629,"MEAN_ANOMALY":243.4578,"EPHEMERIS_TYPE":0,"CLASSIFICATION_TYPE":"U","NORAD_CAT_ID":39444,"ELEMENT_SET_NO":999,"REV_AT_EPOCH":66748,"BSTAR":0.00058287548,"MEAN_MOTION_DOT":9.121e-5,"MEAN_MOTION_DDOT":0},{"OBJECT_NAME":"UWE-3","OBJECT_ID":"2013-066AG","EPOCH":"2026-03-27T20:27:39.332448","MEAN_MOTION":14.96361547,"ECCENTRICITY":0.00483055,"INCLINATION":97.8618,"RA_OF_ASC_NODE":42.4606,"ARG_OF_PERICENTER":229.9974,"MEAN_ANOMALY":129.7003,"EPHEMERIS_TYPE":0,"CLASSIFICATION_TYPE":"U","NORAD_CAT_ID":39446,"ELEMENT_SET_NO":999,"REV_AT_EPOCH":66541,"BSTAR":0.00031439146,"MEAN_MOTION_DOT":3.58e-5,"MEAN_MOTION_DDOT":0},{"OBJECT_NAME":"BRITE-CA1 (TORONTO)","OBJECT_ID":"2014-033L","EPOCH":"2026-03-28T07:35:28.739904","MEAN_MOTION":14.72520262,"ECCENTRICITY":0.00790519,"INCLINATION":97.9601,"RA_OF_ASC_NODE":217.8031,"ARG_OF_PERICENTER":174.9106,"MEAN_ANOMALY":185.2924,"EPHEMERIS_TYPE":0,"CLASSIFICATION_TYPE":"U","NORAD_CAT_ID":40020,"ELEMENT_SET_NO":999,"REV_AT_EPOCH":63031,"BSTAR":0.00024760106,"MEAN_MOTION_DOT":1.599e-5,"MEAN_MOTION_DDOT":0},{"OBJECT_NAME":"DUCHIFAT-1","OBJECT_ID":"2014-033M","EPOCH":"2026-03-28T14:28:37.526304","MEAN_MOTION":15.52193066,"ECCENTRICITY":0.00039129,"INCLINATION":98.0603,"RA_OF_ASC_NODE":136.2924,"ARG_OF_PERICENTER":23.3897,"MEAN_ANOMALY":336.7531,"EPHEMERIS_TYPE":0,"CLASSIFICATION_TYPE":"U","NORAD_CAT_ID":40021,"ELEMENT_SET_NO":999,"REV_AT_EPOCH":64320,"BSTAR":0.0012559262,"MEAN_MOTION_DOT":0.00076623,"MEAN_MOTION_DDOT":0},{"OBJECT_NAME":"NANOSATC-BR1","OBJECT_ID":"2014-033Q","EPOCH":"2026-03-28T13:47:56.009184","MEAN_MOTION":15.28824852,"ECCENTRICITY":0.00054884,"INCLINATION":98.082,"RA_OF_ASC_NODE":112.9529,"ARG_OF_PERICENTER":104.0038,"MEAN_ANOMALY":256.181,"EPHEMERIS_TYPE":0,"CLASSIFICATION_TYPE":"U","NORAD_CAT_ID":40024,"ELEMENT_SET_NO":999,"REV_AT_EPOCH":64165,"BSTAR":0.00073889901,"MEAN_MOTION_DOT":0.00020658,"MEAN_MOTION_DDOT":0},{"OBJECT_NAME":"QB50P1","OBJECT_ID":"2014-033R","EPOCH":"2026-03-28T13:52:54.228288","MEAN_MOTION":15.1689946,"ECCENTRICITY":0.00102531,"INCLINATION":98.1003,"RA_OF_ASC_NODE":93.1439,"ARG_OF_PERICENTER":134.0107,"MEAN_ANOMALY":226.1971,"EPHEMERIS_TYPE":0,"CLASSIFICATION_TYPE":"U","NORAD_CAT_ID":40025,"ELEMENT_SET_NO":999,"REV_AT_EPOCH":64080,"BSTAR":0.00055839979,"MEAN_MOTION_DOT":0.00010949,"MEAN_MOTION_DDOT":0},{"OBJECT_NAME":"QB50P2","OBJECT_ID":"2014-033Y","EPOCH":"2026-03-28T12:02:02.031360","MEAN_MOTION":15.14008024,"ECCENTRICITY":0.0009565,"INCLINATION":98.0746,"RA_OF_ASC_NODE":79.4365,"ARG_OF_PERICENTER":90.3155,"MEAN_ANOMALY":269.9171,"EPHEMERIS_TYPE":0,"CLASSIFICATION_TYPE":"U","NORAD_CAT_ID":40032,"ELEMENT_SET_NO":999,"REV_AT_EPOCH":64045,"BSTAR":0.00054475,"MEAN_MOTION_DOT":9.835e-5,"MEAN_MOTION_DDOT":0},{"OBJECT_NAME":"PERSEUS-M2","OBJECT_ID":"2014-033AD","EPOCH":"2026-03-28T15:11:13.563168","MEAN_MOTION":14.95237406,"ECCENTRICITY":0.00109644,"INCLINATION":97.9888,"RA_OF_ASC_NODE":36.5869,"ARG_OF_PERICENTER":200.7109,"MEAN_ANOMALY":159.3668,"EPHEMERIS_TYPE":0,"CLASSIFICATION_TYPE":"U","NORAD_CAT_ID":40037,"ELEMENT_SET_NO":999,"REV_AT_EPOCH":63874,"BSTAR":8.463689e-5,"MEAN_MOTION_DOT":8.71e-6,"MEAN_MOTION_DDOT":0},{"OBJECT_NAME":"PERSEUS-M1","OBJECT_ID":"2014-033AF","EPOCH":"2026-03-28T09:51:49.649184","MEAN_MOTION":14.95339778,"ECCENTRICITY":0.00108826,"INCLINATION":97.9575,"RA_OF_ASC_NODE":30.2681,"ARG_OF_PERICENTER":198.7747,"MEAN_ANOMALY":161.3073,"EPHEMERIS_TYPE":0,"CLASSIFICATION_TYPE":"U","NORAD_CAT_ID":40039,"ELEMENT_SET_NO":999,"REV_AT_EPOCH":63856,"BSTAR":0.00015790306,"MEAN_MOTION_DOT":1.682e-5,"MEAN_MOTION_DDOT":0},{"OBJECT_NAME":"POLYITAN-1","OBJECT_ID":"2014-033AJ","EPOCH":"2026-03-28T13:48:55.596672","MEAN_MOTION":15.30361713,"ECCENTRICITY":0.00093711,"INCLINATION":98.1033,"RA_OF_ASC_NODE":106.3644,"ARG_OF_PERICENTER":76.3268,"MEAN_ANOMALY":283.9014,"EPHEMERIS_TYPE":0,"CLASSIFICATION_TYPE":"U","NORAD_CAT_ID":40042,"ELEMENT_SET_NO":999,"REV_AT_EPOCH":64125,"BSTAR":0.00080428507,"MEAN_MOTION_DOT":0.00023611,"MEAN_MOTION_DDOT":0}]
